{
  "type": "FeatureCollection",
  "features": [
    {
      "type": "Feature",
      "properties": {
        "norad_id": 41877,
        "name": "RESOURCESAT-2A",
        "group": "resource",
        "lat": -56.70154764579223,
        "lon": -137.4216658159234,
        "alt_km": 826.2465917211803,
        "timestamp": "2025-12-12T07:43:20.161070+00:00",
        "meta_object_name": "RESOURCESAT-2A",
        "meta_object_id": "2016-074A",
        "meta_epoch": "2025-12-11T23:51:02.571264",
        "meta_mean_motion": 14.21597692,
        "meta_eccentricity": 0.00011075,
        "meta_inclination": 98.7752,
        "meta_ra_of_asc_node": 55.8535,
        "meta_arg_of_pericenter": 259.5829,
        "meta_mean_anomaly": 100.5223,
        "meta_ephemeris_type": 0,
        "meta_classification_type": "U",
        "meta_norad_cat_id": 41877,
        "meta_element_set_no": 999,
        "meta_rev_at_epoch": 46770,
        "meta_bstar": 5.889618e-06,
        "meta_mean_motion_dot": -3.1e-07,
        "meta_mean_motion_ddot": 0,
        "tle_line1": "1 41877U 16074A   25345.99377976 -.00000031  00000+0  58896-5 0  9996",
        "tle_line2": "2 41877  98.7752  55.8535 0001107 259.5829 100.5223 14.21597692467700"
      },
      "geometry": {
        "type": "Point",
        "coordinates": [
          -137.4216658159234,
          -56.70154764579223
        ]
      }
    },
    {
      "type": "Feature",
      "properties": {
        "norad_id": 41948,
        "name": "CARTOSAT-2D",
        "group": "resource",
        "lat": 79.59434673688968,
        "lon": -90.81877955689629,
        "alt_km": 499.458769623433,
        "timestamp": "2025-12-12T07:43:20.161080+00:00",
        "meta_object_name": "CARTOSAT-2D",
        "meta_object_id": "2017-008A",
        "meta_epoch": "2025-12-11T23:23:30.645600",
        "meta_mean_motion": 15.19247436,
        "meta_eccentricity": 0.00046077,
        "meta_inclination": 97.4387,
        "meta_ra_of_asc_node": 43.4832,
        "meta_arg_of_pericenter": 164.7759,
        "meta_mean_anomaly": 195.3615,
        "meta_ephemeris_type": 0,
        "meta_classification_type": "U",
        "meta_norad_cat_id": 41948,
        "meta_element_set_no": 999,
        "meta_rev_at_epoch": 48915,
        "meta_bstar": 0.00044059421,
        "meta_mean_motion_dot": 9.224e-05,
        "meta_mean_motion_ddot": 0,
        "tle_line1": "1 41948U 17008A   25345.97466025  .00009224  00000+0  44059-3 0  9991",
        "tle_line2": "2 41948  97.4387  43.4832 0004607 164.7759 195.3615 15.19247436489155"
      },
      "geometry": {
        "type": "Point",
        "coordinates": [
          -90.81877955689629,
          79.59434673688968
        ]
      }
    },
    {
      "type": "Feature",
      "properties": {
        "norad_id": 42063,
        "name": "SENTINEL-2B",
        "group": "resource",
        "lat": -12.410337858745153,
        "lon": -123.12890598156204,
        "alt_km": 793.5719334174664,
        "timestamp": "2025-12-12T07:43:20.161090+00:00",
        "meta_object_name": "SENTINEL-2B",
        "meta_object_id": "2017-013A",
        "meta_epoch": "2025-12-12T00:06:45.026784",
        "meta_mean_motion": 14.30815096,
        "meta_eccentricity": 0.00011526,
        "meta_inclination": 98.5711,
        "meta_ra_of_asc_node": 58.4604,
        "meta_arg_of_pericenter": 91.856,
        "meta_mean_anomaly": 268.2755,
        "meta_ephemeris_type": 0,
        "meta_classification_type": "U",
        "meta_norad_cat_id": 42063,
        "meta_element_set_no": 999,
        "meta_rev_at_epoch": 45787,
        "meta_bstar": 6.8474907e-05,
        "meta_mean_motion_dot": 1.36e-06,
        "meta_mean_motion_ddot": 0,
        "tle_line1": "1 42063U 17013A   25346.00468781  .00000136  00000+0  68475-4 0  9994",
        "tle_line2": "2 42063  98.5711  58.4604 0001152  91.8560 268.2755 14.30815096457876"
      },
      "geometry": {
        "type": "Point",
        "coordinates": [
          -123.12890598156204,
          -12.410337858745153
        ]
      }
    },
    {
      "type": "Feature",
      "properties": {
        "norad_id": 42767,
        "name": "CARTOSAT-2E",
        "group": "resource",
        "lat": 8.0746353491106,
        "lon": 42.84916658834186,
        "alt_km": 511.0056537143728,
        "timestamp": "2025-12-12T07:43:20.161101+00:00",
        "meta_object_name": "CARTOSAT-2E",
        "meta_object_id": "2017-036C",
        "meta_epoch": "2025-12-12T01:21:47.947680",
        "meta_mean_motion": 15.19186912,
        "meta_eccentricity": 0.00018747,
        "meta_inclination": 97.4555,
        "meta_ra_of_asc_node": 43.6522,
        "meta_arg_of_pericenter": 243.759,
        "meta_mean_anomaly": 116.3452,
        "meta_ephemeris_type": 0,
        "meta_classification_type": "U",
        "meta_norad_cat_id": 42767,
        "meta_element_set_no": 999,
        "meta_rev_at_epoch": 46973,
        "meta_bstar": 0.00039469061,
        "meta_mean_motion_dot": 8.239e-05,
        "meta_mean_motion_ddot": 0,
        "tle_line1": "1 42767U 17036C   25346.05680495  .00008239  00000+0  39469-3 0  9995",
        "tle_line2": "2 42767  97.4555  43.6522 0001874 243.7590 116.3452 15.19186912469739"
      },
      "geometry": {
        "type": "Point",
        "coordinates": [
          42.84916658834186,
          8.0746353491106
        ]
      }
    },
    {
      "type": "Feature",
      "properties": {
        "norad_id": 42920,
        "name": "FORMOSAT-5",
        "group": "resource",
        "lat": 15.618947134933599,
        "lon": -117.02767730236724,
        "alt_km": 727.8927538455346,
        "timestamp": "2025-12-12T07:43:20.161111+00:00",
        "meta_object_name": "FORMOSAT-5",
        "meta_object_id": "2017-049A",
        "meta_epoch": "2025-12-12T00:20:51.241344",
        "meta_mean_motion": 14.51004822,
        "meta_eccentricity": 0.00099099,
        "meta_inclination": 98.2453,
        "meta_ra_of_asc_node": 60.3479,
        "meta_arg_of_pericenter": 298.0064,
        "meta_mean_anomaly": 62.0128,
        "meta_ephemeris_type": 0,
        "meta_classification_type": "U",
        "meta_norad_cat_id": 42920,
        "meta_element_set_no": 999,
        "meta_rev_at_epoch": 43953,
        "meta_bstar": 0.00011237515,
        "meta_mean_motion_dot": 4.01e-06,
        "meta_mean_motion_ddot": 0,
        "tle_line1": "1 42920U 17049A   25346.01448196  .00000401  00000+0  11238-3 0  9993",
        "tle_line2": "2 42920  98.2453  60.3479 0009909 298.0064  62.0128 14.51004822439535"
      },
      "geometry": {
        "type": "Point",
        "coordinates": [
          -117.02767730236724,
          15.618947134933599
        ]
      }
    },
    {
      "type": "Feature",
      "properties": {
        "norad_id": 42969,
        "name": "SENTINEL-5P",
        "group": "resource",
        "lat": -65.50881014749207,
        "lon": 85.08119264806867,
        "alt_km": 834.8216869280113,
        "timestamp": "2025-12-12T07:43:20.161121+00:00",
        "meta_object_name": "SENTINEL-5P",
        "meta_object_id": "2017-064A",
        "meta_epoch": "2025-12-11T20:24:44.039808",
        "meta_mean_motion": 14.1951721,
        "meta_eccentricity": 9.479e-05,
        "meta_inclination": 98.7784,
        "meta_ra_of_asc_node": 284.4425,
        "meta_arg_of_pericenter": 88.5095,
        "meta_mean_anomaly": 271.6189,
        "meta_ephemeris_type": 0,
        "meta_classification_type": "U",
        "meta_norad_cat_id": 42969,
        "meta_element_set_no": 999,
        "meta_rev_at_epoch": 42298,
        "meta_bstar": 9.6726654e-05,
        "meta_mean_motion_dot": 1.6e-06,
        "meta_mean_motion_ddot": 0,
        "tle_line1": "1 42969U 17064A   25345.85050972  .00000160  00000+0  96727-4 0  9994",
        "tle_line2": "2 42969  98.7784 284.4425 0000947  88.5095 271.6189 14.19517210422989"
      },
      "geometry": {
        "type": "Point",
        "coordinates": [
          85.08119264806867,
          -65.50881014749207
        ]
      }
    },
    {
      "type": "Feature",
      "properties": {
        "norad_id": 42987,
        "name": "SKYSAT-C11",
        "group": "resource",
        "lat": 11.330237561567948,
        "lon": -54.70256953361074,
        "alt_km": 425.55419199925564,
        "timestamp": "2025-12-12T07:43:20.161132+00:00",
        "meta_object_name": "SKYSAT-C11",
        "meta_object_id": "2017-068A",
        "meta_epoch": "2025-12-11T23:14:12.036768",
        "meta_mean_motion": 15.47394077,
        "meta_eccentricity": 9.987e-05,
        "meta_inclination": 97.414,
        "meta_ra_of_asc_node": 123.4401,
        "meta_arg_of_pericenter": 103.6919,
        "meta_mean_anomaly": 256.4442,
        "meta_ephemeris_type": 0,
        "meta_classification_type": "U",
        "meta_norad_cat_id": 42987,
        "meta_element_set_no": 999,
        "meta_rev_at_epoch": 45419,
        "meta_bstar": 0.00052425573,
        "meta_mean_motion_dot": 0.0002679,
        "meta_mean_motion_ddot": 0,
        "tle_line1": "1 42987U 17068A   25345.96819487  .00026790  00000+0  52426-3 0  9998",
        "tle_line2": "2 42987  97.4140 123.4401 0000998 103.6919 256.4442 15.47394077454194"
      },
      "geometry": {
        "type": "Point",
        "coordinates": [
          -54.70256953361074,
          11.330237561567948
        ]
      }
    }
  ]
}